{
"type": "FeatureCollection",
"name": "canal",
"crs": { "type": "name", "properties": { "name": "urn:ogc:def:crs:OGC:1.3:CRS84" } },
"features": [
{ "type": "Feature", "properties": { "id": "04", "Name": "SEG4", "description": null, "timestamp": null, "begin": null, "end": null, "altitudeMode": null, "tessellate": -1, "extrude": 0, "visibility": -1, "drawOrder": null, "icon": null }, "geometry": { "type": "Polygon", "coordinates": [ [ [ -46.2862037, -23.9764248, 0.0 ], [ -46.2919329, -23.9762484, 0.0 ], [ -46.2907098, -23.9799343, 0.0 ], [ -46.2917398, -23.984718, 0.0 ], [ -46.2878774, -23.9867961, 0.0 ], [ -46.2869762, -23.9826987, 0.0 ], [ -46.2860964, -23.9790716, 0.0 ], [ -46.2862037, -23.9764248, 0.0 ] ] ] } },
{ "type": "Feature", "properties": { "id": "12", "Name": "SEG12", "description": null, "timestamp": null, "begin": null, "end": null, "altitudeMode": null, "tessellate": -1, "extrude": 0, "visibility": -1, "drawOrder": null, "icon": null }, "geometry": { "type": "Polygon", "coordinates": [ [ [ -46.3307815, -23.9282037, 0.0 ], [ -46.3287, -23.925242, 0.0 ], [ -46.332026, -23.924124, 0.0 ], [ -46.3438062, -23.9180631, 0.0 ], [ -46.3453512, -23.9224764, 0.0 ], [ -46.3420252, -23.9236141, 0.0 ], [ -46.342154, -23.9243006, 0.0 ], [ -46.3307815, -23.9282037, 0.0 ] ] ] } },
{ "type": "Feature", "properties": { "id": "05", "Name": "SEG5", "description": null, "timestamp": null, "begin": null, "end": null, "altitudeMode": null, "tessellate": -1, "extrude": 0, "visibility": -1, "drawOrder": null, "icon": null }, "geometry": { "type": "Polygon", "coordinates": [ [ [ -46.2897329, -23.9669392, 0.0 ], [ -46.2952904, -23.9719587, 0.0 ], [ -46.2919329, -23.9762484, 0.0 ], [ -46.2860636, -23.9763505, 0.0 ], [ -46.2897329, -23.9669392, 0.0 ] ] ] } },
{ "type": "Feature", "properties": { "id": "13", "Name": "SEG13", "description": null, "timestamp": null, "begin": null, "end": null, "altitudeMode": null, "tessellate": -1, "extrude": 0, "visibility": -1, "drawOrder": null, "icon": null }, "geometry": { "type": "Polygon", "coordinates": [ [ [ -46.3452224, -23.9220449, 0.0 ], [ -46.3438062, -23.9180631, 0.0 ], [ -46.3564233, -23.9161212, 0.0 ], [ -46.3568096, -23.9199265, 0.0 ], [ -46.3452224, -23.9220449, 0.0 ] ] ] } },
{ "type": "Feature", "properties": { "id": "06", "Name": "SEG6", "description": null, "timestamp": null, "begin": null, "end": null, "altitudeMode": null, "tessellate": -1, "extrude": 0, "visibility": -1, "drawOrder": null, "icon": null }, "geometry": { "type": "Polygon", "coordinates": [ [ [ -46.2952904, -23.9719391, 0.0 ], [ -46.2905268, -23.9676843, 0.0 ], [ -46.2990026, -23.9586842, 0.0 ], [ -46.303852, -23.9614686, 0.0 ], [ -46.2952904, -23.9719391, 0.0 ] ] ] } },
{ "type": "Feature", "properties": { "id": "10", "Name": "SEG10", "description": null, "timestamp": null, "begin": null, "end": null, "altitudeMode": null, "tessellate": -1, "extrude": 0, "visibility": -1, "drawOrder": null, "icon": null }, "geometry": { "type": "Polygon", "coordinates": [ [ [ -46.3093452, -23.9337934, 0.0 ], [ -46.3102893, -23.9285764, 0.0 ], [ -46.3121347, -23.9265365, 0.0 ], [ -46.3161902, -23.9265758, 0.0 ], [ -46.3168983, -23.9321263, 0.0 ], [ -46.3148598, -23.9324205, 0.0 ], [ -46.314495, -23.934421, 0.0 ], [ -46.3093452, -23.9337934, 0.0 ] ] ] } },
{ "type": "Feature", "properties": { "id": "09", "Name": "SEG9", "description": null, "timestamp": null, "begin": null, "end": null, "altitudeMode": null, "tessellate": -1, "extrude": 0, "visibility": -1, "drawOrder": null, "icon": null }, "geometry": { "type": "Polygon", "coordinates": [ [ [ -46.314495, -23.934421, 0.0 ], [ -46.3131218, -23.9421874, 0.0 ], [ -46.3078003, -23.9417951, 0.0 ], [ -46.3093452, -23.9337934, 0.0 ], [ -46.314495, -23.934421, 0.0 ] ] ] } },
{ "type": "Feature", "properties": { "id": "07", "Name": "SEG7", "description": null, "timestamp": null, "begin": null, "end": null, "altitudeMode": null, "tessellate": -1, "extrude": 0, "visibility": -1, "drawOrder": null, "icon": null }, "geometry": { "type": "Polygon", "coordinates": [ [ [ -46.311963, -23.9490119, 0.0 ], [ -46.303852, -23.9614882, 0.0 ], [ -46.2987022, -23.9586598, 0.0 ], [ -46.306384, -23.9478353, 0.0 ], [ -46.311963, -23.9490119, 0.0 ] ] ] } },
{ "type": "Feature", "properties": { "id": "01", "Name": "SEG1", "description": null, "timestamp": null, "begin": null, "end": null, "altitudeMode": null, "tessellate": -1, "extrude": 0, "visibility": -1, "drawOrder": null, "icon": null }, "geometry": { "type": "Polygon", "coordinates": [ [ [ -46.3552826, -24.0138038, 0.0 ], [ -46.3491886, -24.0158423, 0.0 ], [ -46.3421505, -24.0065122, 0.0 ], [ -46.3339107, -24.0011021, 0.0 ], [ -46.3233535, -23.997652, 0.0 ], [ -46.3133972, -23.9960054, 0.0 ], [ -46.3087557, -23.9958039, 0.0 ], [ -46.3080262, -23.9897268, 0.0 ], [ -46.3164013, -23.9905164, 0.0 ], [ -46.3250702, -23.9925552, 0.0 ], [ -46.3356273, -23.9971031, 0.0 ], [ -46.3453262, -24.0032191, 0.0 ], [ -46.3552826, -24.0138038, 0.0 ] ] ] } },
{ "type": "Feature", "properties": { "id": "11", "Name": "SEG11", "description": null, "timestamp": null, "begin": null, "end": null, "altitudeMode": null, "tessellate": -1, "extrude": 0, "visibility": -1, "drawOrder": null, "icon": null }, "geometry": { "type": "Polygon", "coordinates": [ [ [ -46.316319, -23.926615, 0.0 ], [ -46.3287859, -23.9255559, 0.0 ], [ -46.3317041, -23.929557, 0.0 ], [ -46.3168983, -23.9321263, 0.0 ], [ -46.316319, -23.926615, 0.0 ] ] ] } },
{ "type": "Feature", "properties": { "id": "08", "Name": "SEG8", "description": null, "timestamp": null, "begin": null, "end": null, "altitudeMode": null, "tessellate": -1, "extrude": 0, "visibility": -1, "drawOrder": null, "icon": null }, "geometry": { "type": "Polygon", "coordinates": [ [ [ -46.311963, -23.9490119, 0.0 ], [ -46.306384, -23.9478353, 0.0 ], [ -46.3078003, -23.9417951, 0.0 ], [ -46.3131218, -23.9421874, 0.0 ], [ -46.311963, -23.9490119, 0.0 ] ] ] } },
{ "type": "Feature", "properties": { "id": "03", "Name": "SEG3", "description": null, "timestamp": null, "begin": null, "end": null, "altitudeMode": null, "tessellate": -1, "extrude": 0, "visibility": -1, "drawOrder": null, "icon": null }, "geometry": { "type": "Polygon", "coordinates": [ [ [ -46.2980484, -23.9893935, 0.0 ], [ -46.2950872, -23.992981, 0.0 ], [ -46.2912892, -23.9898348, 0.0 ], [ -46.2890361, -23.9875607, 0.0 ], [ -46.2878774, -23.9867961, 0.0 ], [ -46.2917398, -23.984718, 0.0 ], [ -46.2921475, -23.9857178, 0.0 ], [ -46.2942503, -23.98809, 0.0 ], [ -46.2948297, -23.9875999, 0.0 ], [ -46.2980484, -23.9893935, 0.0 ] ] ] } },
{ "type": "Feature", "properties": { "id": "16", "Name": "SEG16", "description": null, "timestamp": null, "begin": null, "end": null, "altitudeMode": null, "tessellate": -1, "extrude": 0, "visibility": -1, "drawOrder": null, "icon": null }, "geometry": { "type": "Polygon", "coordinates": [ [ [ -46.3781616, -23.8798808, 0.0 ], [ -46.3783977, -23.9119176, 0.0 ], [ -46.3752434, -23.91231, 0.0 ], [ -46.3723037, -23.9123688, 0.0 ], [ -46.3740096, -23.8797631, 0.0 ], [ -46.3767669, -23.879822, 0.0 ], [ -46.3781616, -23.8798808, 0.0 ] ] ] } },
{ "type": "Feature", "properties": { "id": "02", "Name": "SEG2", "description": null, "timestamp": null, "begin": null, "end": null, "altitudeMode": null, "tessellate": -1, "extrude": 0, "visibility": -1, "drawOrder": null, "icon": null }, "geometry": { "type": "Polygon", "coordinates": [ [ [ -46.3080262, -23.9897268, 0.0 ], [ -46.3087557, -23.9958039, 0.0 ], [ -46.308348, -23.9957255, 0.0 ], [ -46.3077901, -23.9948434, 0.0 ], [ -46.3069533, -23.9943925, 0.0 ], [ -46.3064168, -23.9942749, 0.0 ], [ -46.3062881, -23.9953922, 0.0 ], [ -46.3061594, -23.9959019, 0.0 ], [ -46.3037346, -23.9961568, 0.0 ], [ -46.2990783, -23.9951962, 0.0 ], [ -46.2950872, -23.992981, 0.0 ], [ -46.2980484, -23.9893935, 0.0 ], [ -46.302812, -23.9916676, 0.0 ], [ -46.3044213, -23.9915107, 0.0 ], [ -46.3062452, -23.9910206, 0.0 ], [ -46.3080262, -23.9897268, 0.0 ] ] ] } },
{ "type": "Feature", "properties": { "id": "15", "Name": "SEG15", "description": null, "timestamp": null, "begin": null, "end": null, "altitudeMode": null, "tessellate": -1, "extrude": 0, "visibility": -1, "drawOrder": null, "icon": null }, "geometry": { "type": "Polygon", "coordinates": [ [ [ -46.3694699, -23.9128737, 0.0 ], [ -46.3783977, -23.9119176, 0.0 ], [ -46.3772366, -23.9171339, 0.0 ], [ -46.3698991, -23.9170518, 0.0 ], [ -46.3694699, -23.9128737, 0.0 ] ] ] } },
{ "type": "Feature", "properties": { "id": "14", "Name": "SEG14", "description": null, "timestamp": null, "begin": null, "end": null, "altitudeMode": null, "tessellate": -1, "extrude": 0, "visibility": -1, "drawOrder": null, "icon": null }, "geometry": { "type": "Polygon", "coordinates": [ [ [ -46.3568096, -23.91975, 0.0 ], [ -46.3564233, -23.9161212, 0.0 ], [ -46.3694699, -23.9128737, 0.0 ], [ -46.3698991, -23.9170518, 0.0 ], [ -46.3568096, -23.91975, 0.0 ] ] ] } },
{ "type": "Feature", "properties": { "id": "17", "Name": "SEG17", "description": null, "timestamp": null, "begin": null, "end": null, "altitudeMode": null, "tessellate": -1, "extrude": 0, "visibility": -1, "drawOrder": null, "icon": null }, "geometry": { "type": "Polygon", "coordinates": [ [ [ -46.3781616, -23.8798808, 0.0 ], [ -46.3740096, -23.8797631, 0.0 ], [ -46.3712481, -23.8704789, 0.0 ], [ -46.3788656, -23.8707144, 0.0 ], [ -46.3781616, -23.8798808, 0.0 ] ] ] } }
]
}
